NORAD_CAT_ID,OBJECT_NAME,OBJECT_TYPE,EPOCH,MEAN_MOTION,ECCENTRICITY,INCLINATION,RA_OF_ASC_NODE,ARG_OF_PERICENTER,MEAN_ANOMALY,BSTAR,MEAN_MOTION_DOT,MEAN_MOTION_DDOT,TLE_LINE0,TLE_LINE1,TLE_LINE2,SEMIMAJOR_AXIS,PERIOD,APOGEE,PERIGEE,DECAYED
53017.0,STARLINK-4281,PAYLOAD,2022-09-26 22:00:00,15.31269624,0.0001749,53.2175,340.2413,39.7624,214.1895,-0.03812,-0.01070304,0.0,0 STARLINK-4281,1 53017U 22076AH  22269.91667824 -.01070304  00000-0 -38120-1 0  9999,2 53017  53.2175 340.2413 0001749  39.7624 214.1895 15.31269624 13261,6850.16,94.04,473.223,470.827,0.0
53017.0,STARLINK-4281,PAYLOAD,2022-09-27 14:00:01,15.29748624,0.0001898,53.2175,337.1477,31.2427,297.9563,-0.039818,-0.01066503,0.0,0 STARLINK-4281,1 53017U 22076AH  22270.58334491 -.01066503  00000-0 -39818-1 0  9996,2 53017  53.2175 337.1477 0001898  31.2427 297.9563 15.29748624  1301,6854.7,94.133,477.866,475.264,0.0
53017.0,STARLINK-4281,PAYLOAD,2022-09-27 22:00:01,15.28989993,0.000157,53.2175,335.6012,38.8848,326.6337,-0.040858,-0.01068655,0.0,0 STARLINK-4281,1 53017U 22076AH  22270.91668981 -.01068655  00000-0 -40858-1 0  9993,2 53017  53.2175 335.6012 0001570  38.8848 326.6337 15.28989993 13415,6856.967,94.18,479.909,477.756,0.0
53017.0,STARLINK-4281,PAYLOAD,2022-09-28 14:00:01,15.27464568,0.0006609,53.2175,332.5185,272.6247,162.6032,-0.042361,-0.0105947,0.0,0 STARLINK-4281,1 53017U 22076AH  22271.58334491 -.01059470  00000-0 -42361-1 0  9999,2 53017  53.2175 332.5185 0006609 272.6247 162.6032 15.27464568 13517,6861.531999999997,94.274,487.932,478.862,0.0
53017.0,STARLINK-4281,PAYLOAD,2022-09-28 22:00:00,15.26709522,0.0001849,53.2174,330.9778,35.9501,72.7932,-0.0436519999999999,-0.01064902,0.0,0 STARLINK-4281,1 53017U 22076AH  22271.91667824 -.01064902  00000-0 -43652-1 0  9995,2 53017  53.2174 330.9778 0001849  35.9501  72.7932 15.26709522 13566,6863.794,94.32,486.92800000000005,484.39,0.0
53017.0,STARLINK-4281,PAYLOAD,2022-09-29 14:00:01,15.25191794,0.000197,53.2173,327.9064,39.9859,133.0504,-0.04572,-0.01065131,0.0,0 STARLINK-4281,1 53017U 22076AH  22272.58334491 -.01065131  00000-0 -45720-1 0  9993,2 53017  53.2173 327.9064 0001970  39.9859 133.0504 15.25191794  1304,6868.347,94.414,491.565,488.859,0.0
53017.0,STARLINK-4281,PAYLOAD,2022-09-29 22:00:00,15.24430206,0.0001837,53.2174,326.3696,39.2704,164.5476,-0.046675,-0.01062865,0.0,0 STARLINK-4281,1 53017U 22076AH  22272.91667824 -.01062865  00000-0 -46675-1 0  9990,2 53017  53.2174 326.3696 0001837  39.2704 164.5476 15.24430206 13722,6870.634,94.462,493.761,491.237,0.0
53017.0,STARLINK-4281,PAYLOAD,2022-09-30 14:00:01,15.2291385,0.0001701,53.2173,323.3092,44.8179,217.8165,-0.048979,-0.0106554,0.0,0 STARLINK-4281,1 53017U 22076AH  22273.58334491 -.01065540  00000-0 -48979-1 0  9997,2 53017  53.2173 323.3092 0001701  44.8179 217.8165 15.22913850  1303,6875.194,94.556,498.228,495.889,0.0
53017.0,STARLINK-4281,PAYLOAD,2022-09-30 22:00:00,15.22156111,0.0001710999999999,53.2174,321.7788,38.9811,251.6945,-0.0502639999999999,-0.01068825,0.0,0 STARLINK-4281,1 53017U 22076AH  22273.91667824 -.01068825  00000-0 -50264-1 0  9992,2 53017  53.2174 321.7788 0001711  38.9811 251.6945 15.22156111 13872,6877.475,94.603,500.517,498.164,0.0
53017.0,STARLINK-4281,PAYLOAD,2022-10-01 14:00:01,15.20645489,0.0001608,53.2172,318.7279,37.3359,306.6781,-0.0531289999999999,-0.0107942,0.0,0 STARLINK-4281,1 53017U 22076AH  22274.58334491 -.01079420  00000-0 -53129-1 0  9993,2 53017  53.2172 318.7279 0001608  37.3359 306.6781 15.20645489  1309,6882.029,94.697,505.001,502.788,0.0
53017.0,STARLINK-4281,PAYLOAD,2022-10-01 22:00:00,15.19883445,0.0001833,53.2173,317.2028,31.5938,337.7259,-0.054224,-0.01091302,0.0,0 STARLINK-4281,1 53017U 22076AH  22274.91667824 -.01091302  00000-0 -54224-1 0  9999,2 53017  53.2173 317.2028 0001833  31.5938 337.7259 15.19883445 14027,6884.33,94.744,507.456,504.9330000000001,0.0
53017.0,STARLINK-4281,PAYLOAD,2022-10-02 14:00:01,15.18358414,0.0001891,53.217,314.1632,36.4398,20.7483,-0.056112,-0.0108102,0.0,0 STARLINK-4281,1 53017U 22076AH  22275.58334491 -.01081020  00000-0 -56112-1 0  9998,2 53017  53.2170 314.1632 0001891  36.4398  20.7483 15.18358414  1306,6888.939,94.839,512.106,509.501,0.0
53017.0,STARLINK-4281,PAYLOAD,2022-10-02 22:00:00,15.17593416,0.0001804,53.2175,312.6419,35.855,43.9029,-0.056975,-0.01074119,0.0,0 STARLINK-4281,1 53017U 22076AH  22275.91667824 -.01074119  00000-0 -56975-1 0  9992,2 53017  53.2175 312.6419 0001804  35.8550  43.9029 15.17593416  1309,6891.253000000002,94.887,514.362,511.875,0.0
53017.0,STARLINK-4281,PAYLOAD,2022-10-03 06:00:00,15.16870751,0.0001715,53.2171,311.127,40.9198,60.4711,-0.061175,-0.01125328,0.0,0 STARLINK-4281,1 53017U 22076AH  22276.25001157 -.01125328  00000-0 -61175-1 0  9998,2 53017  53.2171 311.1270 0001715  40.9198  60.4711 15.16870751 14226,6893.441999999999,94.932,516.489,514.125,0.0
53017.0,STARLINK-4281,PAYLOAD,2022-10-03 14:00:01,15.16113113,0.0001936,53.2169,309.6140000000001,35.2727,86.8551,-0.062575,-0.01126275,0.0,0 STARLINK-4281,1 53017U 22076AH  22276.58334491 -.01126275  00000-0 -62575-1 0  9991,2 53017  53.2169 309.6140 0001936  35.2727  86.8551 15.16113113  1302,6895.738,94.98,518.938,516.268,0.0
53017.0,STARLINK-4281,PAYLOAD,2022-10-03 22:00:00,15.15338266,0.0003671,53.2173,308.0995,282.533,219.4295,-0.062587,-0.0110397999999999,0.0,0 STARLINK-4281,1 53017U 22076AH  22276.91667824 -.01103980  00000-0 -62587-1 0  9998,2 53017  53.2173 308.0995 0003671 282.5330 219.4295 15.15338266  1309,6898.089,95.028,522.486,517.422,0.0
53017.0,STARLINK-4281,PAYLOAD,2022-10-04 06:00:00,15.14592662,0.0001612,53.2172,306.5886,29.3762,131.4954,-0.065384,-0.01126759,0.0,0 STARLINK-4281,1 53017U 22076AH  22277.25001157 -.01126759  00000-0 -65384-1 0  9994,2 53017  53.2172 306.5886 0001612  29.3762 131.4954 15.14592662 14387,6900.352,95.075,523.33,521.105,0.0
53017.0,STARLINK-4281,PAYLOAD,2022-10-04 14:00:01,15.13825211,0.0001805,53.2169,305.0807,45.665,133.2103,-0.0659889999999999,-0.01113795,0.0,0 STARLINK-4281,1 53017U 22076AH  22277.58334491 -.01113795  00000-0 -65989-1 0  9997,2 53017  53.2169 305.0807 0001805  45.6650 133.2103 15.13825211  1303,6902.684,95.123,525.795,523.303,0.0
53017.0,STARLINK-4281,PAYLOAD,2022-10-04 22:00:00,15.13013121,0.0001858,53.2174,303.5716,41.7245,154.2666,-0.062783,-0.01041168,0.0,0 STARLINK-4281,1 53017U 22076AH  22277.91667824 -.01041168  00000-0 -62783-1 0  9996,2 53017  53.2174 303.5716 0001858  41.7245 154.2666 15.13013121  1302,6905.154,95.174,528.302,525.736,0.0
53017.0,STARLINK-4281,PAYLOAD,2022-10-05 14:00:01,15.11515537,0.0001739,53.2171,300.5628,47.328,180.1541,-0.067449,-0.01070247,0.0,0 STARLINK-4281,1 53017U 22076AH  22278.58335648 -.01070247  00000-0 -67449-1 0  9990,2 53017  53.2171 300.5628 0001739  47.3280 180.1541 15.11515537  1303,6909.714,95.269,532.781,530.378,0.0
53017.0,STARLINK-4281,PAYLOAD,2022-10-05 22:00:00,15.10759799,0.0001725,53.2174,299.0581,42.7634,199.0063,-0.069275,-0.01075861,0.0,0 STARLINK-4281,1 53017U 22076AH  22278.91667824 -.01075861  00000-0 -69275-1 0  9997,2 53017  53.2174 299.0581 0001725  42.7634 199.0063 15.10759799  1300,6912.019,95.316,535.076,532.691,0.0
53017.0,STARLINK-4281,PAYLOAD,2022-10-06 14:00:01,15.09151446,0.0001761999999999,53.2169,296.0619,50.3842,217.3554,-0.027272,-0.00413593,0.0,0 STARLINK-4281,1 53017U 22076AH  22279.58334491 -.00413593  00000-0 -27272-1 0  9990,2 53017  53.2169 296.0619 0001762  50.3842 217.3554 15.09151446  1302,6916.929,95.418,540.012,537.575,0.0
53017.0,STARLINK-4281,PAYLOAD,2022-10-06 22:42:55,15.08835606,0.0001674,53.2174,294.4284,48.7131,32.7251,0.00010704,1.416e-05,0.0,0 STARLINK-4281,1 53017U 22076AH  22279.94646991  .00001416  00000-0  10704-3 0  9990,2 53017  53.2174 294.4284 0001674  48.7131  32.7251 15.08835606 14787,6917.894,95.438,540.9169999999998,538.601,0.0
53017.0,STARLINK-4281,PAYLOAD,2022-10-07 06:00:00,15.08861138,0.0002008999999999,53.2161,293.0742,51.6328,239.3365,-0.00032047,-5.388e-05,0.0,0 STARLINK-4281,1 53017U 22076AH  22280.25001157 -.00005388  00000-0 -32047-3 0  9993,2 53017  53.2161 293.0742 0002009  51.6328 239.3365 15.08861138 14837,6917.816,95.436,541.071,538.2909999999998,0.0
53017.0,STARLINK-4281,PAYLOAD,2022-10-07 14:00:01,15.08879049,0.0002005,53.2157,291.578,48.3102,254.273,-0.0010035,-0.00016241,0.0,0 STARLINK-4281,1 53017U 22076AH  22280.58334491 -.00016241  00000-0 -10035-2 0  9991,2 53017  53.2157 291.5780 0002005  48.3102 254.2730 15.08879049  1306,6917.761,95.435,541.013,538.239,0.0
53017.0,STARLINK-4281,PAYLOAD,2022-10-07 22:00:00,15.08831661,0.0001786,53.2158,290.0798,54.0979,260.135,0.0033933,0.00054119,0.0,0 STARLINK-4281,1 53017U 22076AH  22280.91667824  .00054119  00000-0  33933-2 0  9993,2 53017  53.2158 290.0798 0001786  54.0979 260.1350 15.08831661  1303,6917.906,95.438,541.006,538.535,0.0
53017.0,STARLINK-4281,PAYLOAD,2022-10-08 14:00:01,15.08859177,0.0001788,53.2152,287.0883,44.7008,292.7427,-0.0027796,-0.00044278,0.0,0 STARLINK-4281,1 53017U 22076AH  22281.58334491 -.00044278  00000-0 -27796-2 0  9995,2 53017  53.2152 287.0883 0001788  44.7008 292.7427 15.08859177 15032,6917.821999999999,95.436,540.924,538.45,0.0
53017.0,STARLINK-4281,PAYLOAD,2022-10-08 22:00:00,15.08882178,0.0001756,53.2165,285.586,48.034,300.9979,-0.0020206,-0.00032339,0.0,0 STARLINK-4281,1 53017U 22076AH  22281.91667824 -.00032339  00000-0 -20206-2 0  9995,2 53017  53.2165 285.5860 0001756  48.0340 300.9979 15.08882178  1301,6917.751,95.435,540.831,538.4019999999998,0.0
53017.0,STARLINK-4281,PAYLOAD,2022-10-09 06:00:00,15.08839997,0.0001748,53.2153,284.0953,50.9714,309.643,-0.00026161,-4.449e-05,0.0,0 STARLINK-4281,1 53017U 22076AH  22282.25001157 -.00004449  00000-0 -26161-3 0  9992,2 53017  53.2153 284.0953 0001748  50.9714 309.6430 15.08839997 15138,6917.88,95.438,540.955,538.536,0.0
